STARLINK-4410           
1 53204U 22084R   26068.76278685 -.00000190  00000+0 -10270-4 0  9996
2 53204  97.6024 130.2816 0001645  66.7955 293.3442 15.01260106199984
CHAMRAN-1               
1 61072U 24165B   26068.91010681  .00007263  00000+0  44320-3 0  9995
2 61072  64.0789   8.4365 0045019 310.8781  48.8437 15.10235792 81665
