[{"OBJECT_NAME":"STARLINK-4410","OBJECT_ID":"2022-084R","EPOCH":"2026-03-09T18:18:24.784704","MEAN_MOTION":15.01260106,"ECCENTRICITY":0.00016449,"INCLINATION":97.6024,"RA_OF_ASC_NODE":130.2816,"ARG_OF_PERICENTER":66.7955,"MEAN_ANOMALY":293.3442,"EPHEMERIS_TYPE":0,"CLASSIFICATION_TYPE":"U","NORAD_CAT_ID":53204,"ELEMENT_SET_NO":999,"REV_AT_EPOCH":19998,"BSTAR":-1.027046e-5,"MEAN_MOTION_DOT":-1.9e-6,"MEAN_MOTION_DDOT":0},{"OBJECT_NAME":"CHAMRAN-1","OBJECT_ID":"2024-165B","EPOCH":"2026-03-09T21:50:33.228384","MEAN_MOTION":15.10235792,"ECCENTRICITY":0.0045019,"INCLINATION":64.0789,"RA_OF_ASC_NODE":8.4365,"ARG_OF_PERICENTER":310.8781,"MEAN_ANOMALY":48.8437,"EPHEMERIS_TYPE":0,"CLASSIFICATION_TYPE":"U","NORAD_CAT_ID":61072,"ELEMENT_SET_NO":999,"REV_AT_EPOCH":8166,"BSTAR":0.0004432,"MEAN_MOTION_DOT":7.263e-5,"MEAN_MOTION_DDOT":0}]
